[
    {
        "Altitude(m)": 717571.6950893372,
        "Argument of Periapsis(deg)": 0.0011390121186627068,
        "Eccentricity": 0.0,
        "Inclination(deg)": 45.0,
        "Latitude(deg)": -44.402938935794,
        "Longitude(deg)": -36.98543550268078,
        "Mean Anomaly(deg)": -80.66487833525191,
        "RAAN(deg)": 139.9989248058542,
        "Satellite Name": "Constellation 1 633",
        "Satellite Number": 633,
        "Semi-Major Axis(m)": 7083131.272910544,
        "Time(s)": 19
    },
    {
        "Altitude(m)": 717567.6761980092,
        "Argument of Periapsis(deg)": 0.0011989601249081123,
        "Eccentricity": 0.0,
        "Inclination(deg)": 45.0,
        "Latitude(deg)": -44.39321369493603,
        "Longitude(deg)": -36.90610799714511,
        "Mean Anomaly(deg)": -80.60417719500205,
        "RAAN(deg)": 139.9988682166886,
        "Satellite Name": "Constellation 1 633",
        "Satellite Number": 633,
        "Semi-Major Axis(m)": 7083131.272910544,
        "Time(s)": 20
    },
    {
        "Altitude(m)": 717563.6320580823,
        "Argument of Periapsis(deg)": 0.001258908131153518,
        "Eccentricity": 0.0,
        "Inclination(deg)": 45.0,
        "Latitude(deg)": -44.383427530171964,
        "Longitude(deg)": -36.826808147228284,
        "Mean Anomaly(deg)": -80.54347605475215,
        "RAAN(deg)": 139.99881162752303,
        "Satellite Name": "Constellation 1 633",
        "Satellite Number": 633,
        "Semi-Major Axis(m)": 7083131.272910544,
        "Time(s)": 21
    },
    {
        "Altitude(m)": 717559.5626844618,
        "Argument of Periapsis(deg)": 0.0013188561373989236,
        "Eccentricity": 0.0,
        "Inclination(deg)": 45.0,
        "Latitude(deg)": -44.37358048207706,
        "Longitude(deg)": -36.747536274868,
        "Mean Anomaly(deg)": -80.48277491450226,
        "RAAN(deg)": 139.99875503835747,
        "Satellite Name": "Constellation 1 633",
        "Satellite Number": 633,
        "Semi-Major Axis(m)": 7083131.272910544,
        "Time(s)": 22
    },
    {
        "Altitude(m)": 717555.4680921314,
        "Argument of Periapsis(deg)": 0.0013788041436443293,
        "Eccentricity": 0.0,
        "Inclination(deg)": 45.0,
        "Latitude(deg)": -44.36367259144406,
        "Longitude(deg)": -36.66829219725975,
        "Mean Anomaly(deg)": -80.42207377425225,
        "RAAN(deg)": 139.9986984491919,
        "Satellite Name": "Constellation 1 633",
        "Satellite Number": 633,
        "Semi-Major Axis(m)": 7083131.272910544,
        "Time(s)": 23
    },
    {
        "Altitude(m)": 717551.3482961761,
        "Argument of Periapsis(deg)": 0.001438752149889735,
        "Eccentricity": 0.0,
        "Inclination(deg)": 45.0,
        "Latitude(deg)": -44.35370389928363,
        "Longitude(deg)": -36.589076235439016,
        "Mean Anomaly(deg)": -80.36137263400242,
        "RAAN(deg)": 139.9986418600263,
        "Satellite Name": "Constellation 1 633",
        "Satellite Number": 633,
        "Semi-Major Axis(m)": 7083131.272910544,
        "Time(s)": 24
    },
    {
        "Altitude(m)": 717547.203311761,
        "Argument of Periapsis(deg)": 0.0014987001561351404,
        "Eccentricity": 0.0,
        "Inclination(deg)": 45.0,
        "Latitude(deg)": -44.34367444681316,
        "Longitude(deg)": -36.509888541809424,
        "Mean Anomaly(deg)": -80.30067149375256,
        "RAAN(deg)": 139.99858527086076,
        "Satellite Name": "Constellation 1 633",
        "Satellite Number": 633,
        "Semi-Major Axis(m)": 7083131.272910544,
        "Time(s)": 25
    },
    {
        "Altitude(m)": 717543.0331541632,
        "Argument of Periapsis(deg)": 0.001558648162380546,
        "Eccentricity": 0.0,
        "Inclination(deg)": 45.0,
        "Latitude(deg)": -44.33358427549452,
        "Longitude(deg)": -36.430729268557435,
        "Mean Anomaly(deg)": -80.23997035350264,
        "RAAN(deg)": 139.99852868169518,
        "Satellite Name": "Constellation 1 633",
        "Satellite Number": 633,
        "Semi-Major Axis(m)": 7083131.272910544,
        "Time(s)": 26
    },
    {
        "Altitude(m)": 717538.8378387426,
        "Argument of Periapsis(deg)": 0.0016185961686259519,
        "Eccentricity": 0.0,
        "Inclination(deg)": 45.0,
        "Latitude(deg)": -44.323433426976024,
        "Longitude(deg)": -36.35159856717467,
        "Mean Anomaly(deg)": -80.1792692132527,
        "RAAN(deg)": 139.99847209252962,
        "Satellite Name": "Constellation 1 633",
        "Satellite Number": 633,
        "Semi-Major Axis(m)": 7083131.272910544,
        "Time(s)": 27
    },
    {
        "Altitude(m)": 717534.6173809442,
        "Argument of Periapsis(deg)": 0.0016785441748713573,
        "Eccentricity": 0.0,
        "Inclination(deg)": 45.0,
        "Latitude(deg)": -44.313221943129705,
        "Longitude(deg)": -36.272496588771894,
        "Mean Anomaly(deg)": -80.11856807300286,
        "RAAN(deg)": 139.99841550336404,
        "Satellite Name": "Constellation 1 633",
        "Satellite Number": 633,
        "Semi-Major Axis(m)": 7083131.272910544,
        "Time(s)": 28
    },
    {
        "Altitude(m)": 717530.3717963136,
        "Argument of Periapsis(deg)": 0.001738492181116763,
        "Eccentricity": 0.0,
        "Inclination(deg)": 45.0,
        "Latitude(deg)": -44.30294986604091,
        "Longitude(deg)": -36.19342348399775,
        "Mean Anomaly(deg)": -80.05786693275292,
        "RAAN(deg)": 139.99835891419846,
        "Satellite Name": "Constellation 1 633",
        "Satellite Number": 633,
        "Semi-Major Axis(m)": 7083131.272910544,
        "Time(s)": 29
    },
    {
        "Altitude(m)": 717526.1011004973,
        "Argument of Periapsis(deg)": 0.0017984401873621684,
        "Eccentricity": 0.0,
        "Inclination(deg)": 45.0,
        "Latitude(deg)": -44.29261723800795,
        "Longitude(deg)": -36.114379571135835,
        "Mean Anomaly(deg)": -79.99716579250307,
        "RAAN(deg)": 139.9983023250329,
        "Satellite Name": "Constellation 1 633",
        "Satellite Number": 633,
        "Semi-Major Axis(m)": 7083131.272910544,
        "Time(s)": 30
    },
    {
        "Altitude(m)": 717521.8053092114,
        "Argument of Periapsis(deg)": 0.0018583881936075745,
        "Eccentricity": 0.0,
        "Inclination(deg)": 45.0,
        "Latitude(deg)": -44.28222410154023,
        "Longitude(deg)": -36.03536466371227,
        "Mean Anomaly(deg)": -79.93646465225314,
        "RAAN(deg)": 139.99824573586733,
        "Satellite Name": "Constellation 1 633",
        "Satellite Number": 633,
        "Semi-Major Axis(m)": 7083131.272910544,
        "Time(s)": 31
    },
    {
        "Altitude(m)": 717517.48443828,
        "Argument of Periapsis(deg)": 0.0019183361998529795,
        "Eccentricity": 0.0,
        "Inclination(deg)": 45.0,
        "Latitude(deg)": -44.27177049935896,
        "Longitude(deg)": -35.956379079078495,
        "Mean Anomaly(deg)": -79.87576351200323,
        "RAAN(deg)": 139.99818914670178,
        "Satellite Name": "Constellation 1 633",
        "Satellite Number": 633,
        "Semi-Major Axis(m)": 7083131.272910544,
        "Time(s)": 32
    },
    {
        "Altitude(m)": 717513.1385036208,
        "Argument of Periapsis(deg)": 0.0019782842060983856,
        "Eccentricity": 0.0,
        "Inclination(deg)": 45.0,
        "Latitude(deg)": -44.26125647439529,
        "Longitude(deg)": -35.87742296602008,
        "Mean Anomaly(deg)": -79.81506237175333,
        "RAAN(deg)": 139.99813255753622,
        "Satellite Name": "Constellation 1 633",
        "Satellite Number": 633,
        "Semi-Major Axis(m)": 7083131.272910544,
        "Time(s)": 33
    },
    {
        "Altitude(m)": 717508.7675212339,
        "Argument of Periapsis(deg)": 0.0020382322123437906,
        "Eccentricity": 0.0,
        "Inclination(deg)": 45.0,
        "Latitude(deg)": -44.25068206978987,
        "Longitude(deg)": -35.798496472852364,
        "Mean Anomaly(deg)": -79.75436123150341,
        "RAAN(deg)": 139.9980759683706,
        "Satellite Name": "Constellation 1 633",
        "Satellite Number": 633,
        "Semi-Major Axis(m)": 7083131.272910544,
        "Time(s)": 34
    },
    {
        "Altitude(m)": 717504.3715072193,
        "Argument of Periapsis(deg)": 0.002098180218589197,
        "Eccentricity": 0.0,
        "Inclination(deg)": 45.0,
        "Latitude(deg)": -44.24004732889206,
        "Longitude(deg)": -35.719599747418926,
        "Mean Anomaly(deg)": -79.69366009125356,
        "RAAN(deg)": 139.99801937920506,
        "Satellite Name": "Constellation 1 633",
        "Satellite Number": 633,
        "Semi-Major Axis(m)": 7083131.272910544,
        "Time(s)": 35
    },
    {
        "Altitude(m)": 717499.9504777639,
        "Argument of Periapsis(deg)": 0.002158128224834602,
        "Eccentricity": 0.0,
        "Inclination(deg)": 45.0,
        "Latitude(deg)": -44.22935229525901,
        "Longitude(deg)": -35.64073293708916,
        "Mean Anomaly(deg)": -79.63295895100364,
        "RAAN(deg)": 139.99796279003948,
        "Satellite Name": "Constellation 1 633",
        "Satellite Number": 633,
        "Semi-Major Axis(m)": 7083131.272910544,
        "Time(s)": 36
    },
    {
        "Altitude(m)": 717495.5044491548,
        "Argument of Periapsis(deg)": 0.002218076231080008,
        "Eccentricity": 0.0,
        "Inclination(deg)": 45.0,
        "Latitude(deg)": -44.21859701265518,
        "Longitude(deg)": -35.56189635685492,
        "Mean Anomaly(deg)": -79.57225781075374,
        "RAAN(deg)": 139.99790620087393,
        "Satellite Name": "Constellation 1 633",
        "Satellite Number": 633,
        "Semi-Major Axis(m)": 7083131.272910544,
        "Time(s)": 37
    }
]